QIANFAN-25              
1 61558U 24185G   25346.93627463  .00000633  00000+0  37846-3 0  9997
2 61558  88.9808  78.1678 0007868 321.5242  38.5378 14.05909186 69533
QIANFAN-26              
1 61559U 24185H   25346.96645595  .00000354  00000+0  34108-3 0  9995
2 61559  88.9813  79.7266 0005871  31.0626 329.0887 13.77813297 68707
QIANFAN-27              
1 61560U 24185J   25346.95885626  .00000920  00000+0  36990-3 0  9997
2 61560  88.9807  76.9182 0005641 293.0411  67.0188 14.27334083 70191
QIANFAN-28              
1 61561U 24185K   25346.94093374  .00001448  00000+0  57805-3 0  9992
2 61561  88.9825  76.9235 0005027 291.7581  68.3078 14.28036329 70209
QIANFAN-29              
1 61562U 24185L   25346.96123715  .00000250  00000+0  36764-3 0  9999
2 61562  88.9790  81.2879 0011165  58.6472 301.5770 13.51011432 67821
QIANFAN-30              
1 61563U 24185M   25346.93623994  .00000149  00000+0  21579-3 0  9996
2 61563  88.9811  80.8160 0008430  48.5061 311.6812 13.49988502 68094
QIANFAN-31              
1 61564U 24185N   25346.97719657  .00000152  00000+0  19429-3 0  9998
2 61564  88.9794  80.6135 0007636  43.7258 316.4501 13.57967045 68194
QIANFAN-32              
1 61565U 24185P   25346.97866557  .00000183  00000+0  26642-3 0  9990
2 61565  88.9853  80.9458 0010877  69.3822 290.8495 13.50735633 68077
